{"type": "FeatureCollection", "features": [ {"type": "Feature", "properties": {"norad_id": 66574, "name": "STARLINK-35812", "group": "last-30-days", "lat": -34.993849748689684, "lon": 5.489188449889362, "alt_km": 426.1638111266002, "timestamp": "2025-12-24T03:53:28.359595+00:00", "meta": {"OBJECT_NAME": "STARLINK-35812", "OBJECT_ID": "2025-268T", "EPOCH": "2025-12-23T20:00:01.000224", "MEAN_MOTION": 15.49005974, "ECCENTRICITY": 0.0001115, "INCLINATION": 43.0002, "RA_OF_ASC_NODE": 56.1039, "ARG_OF_PERICENTER": 270.1324, "MEAN_ANOMALY": 357.8781, "EPHEMERIS_TYPE": 0, "CLASSIFICATION_TYPE": "U", "NORAD_CAT_ID": 66574, "ELEMENT_SET_NO": 999, "REV_AT_EPOCH": 608, "BSTAR": -0.042202, "MEAN_MOTION_DOT": -0.02080538, "MEAN_MOTION_DDOT": 0}, "tle": {"line1": "1 66574U 25268T   25357.83334491 -.02080538  00000+0 -42202-1 0  9996", "line2": "2 66574  43.0002  56.1039 0001115 270.1324 357.8781 15.49005974  6087"}}, "geometry": {"type": "Point", "coordinates": [5.489188449889362, -34.993849748689684]}}, {"type": "Feature", "properties": {"norad_id": 66575, "name": "STARLINK-35810", "group": "last-30-days", "lat": -31.312231743192868, "lon": 13.416680080261496, "alt_km": 423.6041284036628, "timestamp": "2025-12-24T03:53:28.359605+00:00", "meta": {"OBJECT_NAME": "STARLINK-35810", "OBJECT_ID": "2025-268U", "EPOCH": "2025-12-23T20:00:01.000224", "MEAN_MOTION": 15.49843798, "ECCENTRICITY": 0.0001073, "INCLINATION": 43.0003, "RA_OF_ASC_NODE": 56.0877, "ARG_OF_PERICENTER": 268.3941, "MEAN_ANOMALY": 6.2291, "EPHEMERIS_TYPE": 0, "CLASSIFICATION_TYPE": "U", "NORAD_CAT_ID": 66575, "ELEMENT_SET_NO": 999, "REV_AT_EPOCH": 608, "BSTAR": -0.040969, "MEAN_MOTION_DOT": -0.02080901, "MEAN_MOTION_DDOT": 0}, "tle": {"line1": "1 66575U 25268U   25357.83334491 -.02080901  00000+0 -40969-1 0  9999", "line2": "2 66575  43.0003  56.0877 0001073 268.3941   6.2291 15.49843798  6080"}}, "geometry": {"type": "Point", "coordinates": [13.416680080261496, -31.312231743192868]}}, {"type": "Feature", "properties": {"norad_id": 66576, "name": "STARLINK-35814", "group": "last-30-days", "lat": -27.48464386790769, "lon": 20.21563466270405, "alt_km": 420.5645079809292, "timestamp": "2025-12-24T03:53:28.359616+00:00", "meta": {"OBJECT_NAME": "STARLINK-35814", "OBJECT_ID": "2025-268V", "EPOCH": "2025-12-23T16:00:01.998720", "MEAN_MOTION": 15.51397553, "ECCENTRICITY": 0.0001416, "INCLINATION": 43.0001, "RA_OF_ASC_NODE": 57.0493, "ARG_OF_PERICENTER": 283.9396, "MEAN_ANOMALY": 145.0731, "EPHEMERIS_TYPE": 0, "CLASSIFICATION_TYPE": "U", "NORAD_CAT_ID": 66576, "ELEMENT_SET_NO": 999, "REV_AT_EPOCH": 605, "BSTAR": -0.037497, "MEAN_MOTION_DOT": -0.020214, "MEAN_MOTION_DDOT": 0}, "tle": {"line1": "1 66576U 25268V   25357.66668980 -.02021400  00000+0 -37497-1 0  9995", "line2": "2 66576  43.0001  57.0493 0001416 283.9396 145.0731 15.51397553  6056"}}, "geometry": {"type": "Point", "coordinates": [20.21563466270405, -27.48464386790769]}}, {"type": "Feature", "properties": {"norad_id": 66577, "name": "STARLINK-35815", "group": "last-30-days", "lat": -21.89263794529982, "lon": 28.582755952451926, "alt_km": 416.40186722823546, "timestamp": "2025-12-24T03:53:28.359627+00:00", "meta": {"OBJECT_NAME": "STARLINK-35815", "OBJECT_ID": "2025-268W", "EPOCH": "2025-12-23T20:00:01.000224", "MEAN_MOTION": 15.5213123, "ECCENTRICITY": 0.0001177, "INCLINATION": 43.0009, "RA_OF_ASC_NODE": 56.0539, "ARG_OF_PERICENTER": 266.7115, "MEAN_ANOMALY": 21.7192, "EPHEMERIS_TYPE": 0, "CLASSIFICATION_TYPE": "U", "NORAD_CAT_ID": 66577, "ELEMENT_SET_NO": 999, "REV_AT_EPOCH": 608, "BSTAR": -0.037704, "MEAN_MOTION_DOT": -0.02079933, "MEAN_MOTION_DDOT": 0}, "tle": {"line1": "1 66577U 25268W   25357.83334491 -.02079933  00000+0 -37704-1 0  9997", "line2": "2 66577  43.0009  56.0539 0001177 266.7115  21.7192 15.52131230  6080"}}, "geometry": {"type": "Point", "coordinates": [28.582755952451926, -21.89263794529982]}}, {"type": "Feature", "properties": {"norad_id": 66578, "name": "STARLINK-35743", "group": "last-30-days", "lat": -18.44154962514172, "lon": 33.14664562823339, "alt_km": 413.7645558349577, "timestamp": "2025-12-24T03:53:28.359637+00:00", "meta": {"OBJECT_NAME": "STARLINK-35743", "OBJECT_ID": "2025-268X", "EPOCH": "2025-12-23T20:00:01.000224", "MEAN_MOTION": 15.52969265, "ECCENTRICITY": 0.0001157, "INCLINATION": 43.0002, "RA_OF_ASC_NODE": 56.043, "ARG_OF_PERICENTER": 265.6417, "MEAN_ANOMALY": 27.3084, "EPHEMERIS_TYPE": 0, "CLASSIFICATION_TYPE": "U", "NORAD_CAT_ID": 66578, "ELEMENT_SET_NO": 999, "REV_AT_EPOCH": 608, "BSTAR": -0.036619, "MEAN_MOTION_DOT": -0.02082492, "MEAN_MOTION_DDOT": 0}, "tle": {"line1": "1 66578U 25268X   25357.83334491 -.02082492  00000+0 -36619-1 0  9996", "line2": "2 66578  43.0002  56.0430 0001157 265.6417  27.3084 15.52969265  6084"}}, "geometry": {"type": "Point", "coordinates": [33.14664562823339, -18.44154962514172]}}, {"type": "Feature", "properties": {"norad_id": 66579, "name": "STARLINK-35868", "group": "last-30-days", "lat": -15.246441015386475, "lon": 37.093688207759165, "alt_km": 411.1511119873212, "timestamp": "2025-12-24T03:53:28.359647+00:00", "meta": {"OBJECT_NAME": "STARLINK-35868", "OBJECT_ID": "2025-268Y", "EPOCH": "2025-12-23T20:00:01.000224", "MEAN_MOTION": 15.53827364, "ECCENTRICITY": 0.0001539, "INCLINATION": 43.0006, "RA_OF_ASC_NODE": 56.0317, "ARG_OF_PERICENTER": 260.7368, "MEAN_ANOMALY": 36.1695, "EPHEMERIS_TYPE": 0, "CLASSIFICATION_TYPE": "U", "NORAD_CAT_ID": 66579, "ELEMENT_SET_NO": 999, "REV_AT_EPOCH": 608, "BSTAR": -0.03631, "MEAN_MOTION_DOT": -0.02125811, "MEAN_MOTION_DDOT": 0}, "tle": {"line1": "1 66579U 25268Y   25357.83334491 -.02125811  00000+0 -36310-1 0  9998", "line2": "2 66579  43.0006  56.0317 0001539 260.7368  36.1695 15.53827364  6088"}}, "geometry": {"type": "Point", "coordinates": [37.093688207759165, -15.246441015386475]}}, {"type": "Feature", "properties": {"norad_id": 66580, "name": "STARLINK-35872", "group": "last-30-days", "lat": -12.360559388335533, "lon": 40.48920149193999, "alt_km": 408.3627241434124, "timestamp": "2025-12-24T03:53:28.359658+00:00", "meta": {"OBJECT_NAME": "STARLINK-35872", "OBJECT_ID": "2025-268Z", "EPOCH": "2025-12-23T20:00:01.000224", "MEAN_MOTION": 15.54663475, "ECCENTRICITY": 0.0001545, "INCLINATION": 43.0007, "RA_OF_ASC_NODE": 56.0237, "ARG_OF_PERICENTER": 266.4941, "MEAN_ANOMALY": 33.8079, "EPHEMERIS_TYPE": 0, "CLASSIFICATION_TYPE": "U", "NORAD_CAT_ID": 66580, "ELEMENT_SET_NO": 999, "REV_AT_EPOCH": 608, "BSTAR": -0.035093, "MEAN_MOTION_DOT": -0.02119845, "MEAN_MOTION_DDOT": 0}, "tle": {"line1": "1 66580U 25268Z   25357.83334491 -.02119845  00000+0 -35093-1 0  9997", "line2": "2 66580  43.0007  56.0237 0001545 266.4941  33.8079 15.54663475  6081"}}, "geometry": {"type": "Point", "coordinates": [40.48920149193999, -12.360559388335533]}}, {"type": "Feature", "properties": {"norad_id": 66581, "name": "STARLINK-35744", "group": "last-30-days", "lat": -9.810325731202473, "lon": 43.38639503560347, "alt_km": 405.58002260964804, "timestamp": "2025-12-24T03:53:28.359670+00:00", "meta": {"OBJECT_NAME": "STARLINK-35744", "OBJECT_ID": "2025-268AA", "EPOCH": "2025-12-23T20:00:01.000224", "MEAN_MOTION": 15.55525435, "ECCENTRICITY": 0.0001583, "INCLINATION": 43.0007, "RA_OF_ASC_NODE": 56.0157, "ARG_OF_PERICENTER": 271.731, "MEAN_ANOMALY": 31.3869, "EPHEMERIS_TYPE": 0, "CLASSIFICATION_TYPE": "U", "NORAD_CAT_ID": 66581, "ELEMENT_SET_NO": 999, "REV_AT_EPOCH": 608, "BSTAR": -0.034425, "MEAN_MOTION_DOT": -0.02144184, "MEAN_MOTION_DDOT": 0}, "tle": {"line1": "1 66581U 25268AA  25357.83334491 -.02144184  00000+0 -34425-1 0  9990", "line2": "2 66581  43.0007  56.0157 0001583 271.7310  31.3869 15.55525435  6088"}}, "geometry": {"type": "Point", "coordinates": [43.38639503560347, -9.810325731202473]}}, {"type": "Feature", "properties": {"norad_id": 66582, "name": "STARLINK-35746", "group": "last-30-days", "lat": -7.192989502301395, "lon": 46.28711227685373, "alt_km": 401.4792852968694, "timestamp": "2025-12-24T03:53:28.359681+00:00", "meta": {"OBJECT_NAME": "STARLINK-35746", "OBJECT_ID": "2025-268AB", "EPOCH": "2025-12-23T20:00:01.000224", "MEAN_MOTION": 15.56825252, "ECCENTRICITY": 0.0001436, "INCLINATION": 43.0007, "RA_OF_ASC_NODE": 56.0104, "ARG_OF_PERICENTER": 257.7054, "MEAN_ANOMALY": 47.6669, "EPHEMERIS_TYPE": 0, "CLASSIFICATION_TYPE": "U", "NORAD_CAT_ID": 66582, "ELEMENT_SET_NO": 999, "REV_AT_EPOCH": 608, "BSTAR": -0.029399, "MEAN_MOTION_DOT": -0.01910735, "MEAN_MOTION_DDOT": 0}, "tle": {"line1": "1 66582U 25268AB  25357.83334491 -.01910735  00000+0 -29399-1 0  9997", "line2": "2 66582  43.0007  56.0104 0001436 257.7054  47.6669 15.56825252  6086"}}, "geometry": {"type": "Point", "coordinates": [46.28711227685373, -7.192989502301395]}}, {"type": "Feature", "properties": {"norad_id": 66583, "name": "STARLINK-35941", "group": "last-30-days", "lat": -5.653866179403452, "lon": 47.96666657931906, "alt_km": 399.11698404555773, "timestamp": "2025-12-24T03:53:28.359692+00:00", "meta": {"OBJECT_NAME": "STARLINK-35941", "OBJECT_ID": "2025-268AC", "EPOCH": "2025-12-23T20:00:01.000224", "MEAN_MOTION": 15.56690027, "ECCENTRICITY": 0.0001739, "INCLINATION": 43.0006, "RA_OF_ASC_NODE": 56.0058, "ARG_OF_PERICENTER": 263.3856, "MEAN_ANOMALY": 43.8974, "EPHEMERIS_TYPE": 0, "CLASSIFICATION_TYPE": "U", "NORAD_CAT_ID": 66583, "ELEMENT_SET_NO": 999, "REV_AT_EPOCH": 608, "BSTAR": -0.010814, "MEAN_MOTION_DOT": -0.00724679, "MEAN_MOTION_DDOT": 0}, "tle": {"line1": "1 66583U 25268AC  25357.83334491 -.00724679  00000+0 -10814-1 0  9999", "line2": "2 66583  43.0006  56.0058 0001739 263.3856  43.8974 15.56690027  6080"}}, "geometry": {"type": "Point", "coordinates": [47.96666657931906, -5.653866179403452]}}]}